NORAD_CAT_ID,OBJECT_NAME,OBJECT_TYPE,EPOCH,MEAN_MOTION,ECCENTRICITY,INCLINATION,RA_OF_ASC_NODE,ARG_OF_PERICENTER,MEAN_ANOMALY,BSTAR,MEAN_MOTION_DOT,MEAN_MOTION_DDOT,TLE_LINE0,TLE_LINE1,TLE_LINE2,SEMIMAJOR_AXIS,PERIOD,APOGEE,PERIGEE,DECAYED
52491.0,STARLINK-3908,PAYLOAD,2023-03-27 13:54:13,15.0886059,0.0001212,53.214,208.9457,102.3434,257.7694,0.0015226,0.00024041,0.0,0 STARLINK-3908,1 52491U 22049AS  23086.57932407  .00024041  00000-0  15226-2 0  9993,2 52491  53.2140 208.9457 0001212 102.3434 257.7694 15.08860590 49630,6917.817,95.436,540.521,538.844,0.0
52491.0,STARLINK-3908,PAYLOAD,2023-03-27 21:51:08,15.08878303,0.0001211,53.2138,207.4589,101.3908,258.722,0.0021881,0.00034744,0.0,0 STARLINK-3908,1 52491U 22049AS  23086.91051889  .00034744  00000-0  21881-2 0  9992,2 52491  53.2138 207.4589 0001211 101.3908 258.7220 15.08878303 49841,6917.763,95.435,540.466,538.791,0.0
52491.0,STARLINK-3908,PAYLOAD,2023-03-28 02:37:18,15.08843542,0.0001198,53.2139,206.5673,93.4093,266.7036,7.575e-05,9.18e-06,0.0,0 STARLINK-3908,1 52491U 22049AS  23087.10924319  .00000918  00000-0  75750-4 0  9993,2 52491  53.2139 206.5673 0001198  93.4093 266.7036 15.08843542 49870,6917.87,95.437,540.563,538.906,0.0
52491.0,STARLINK-3908,PAYLOAD,2023-03-28 13:45:00,15.08859779,0.0001214,53.2135,204.4854,86.1659,273.9472,0.0018276,0.00028934,0.0,0 STARLINK-3908,1 52491U 22049AS  23087.57292233  .00028934  00000-0  18276-2 0  9993,2 52491  53.2135 204.4854 0001214  86.1659 273.9472 15.08859779 49783,6917.82,95.436,540.525,538.845,0.0
52491.0,STARLINK-3908,PAYLOAD,2023-03-28 21:41:56,15.08833168,0.0002802,53.2135,202.9988,29.9649,330.1503,0.00068769,0.00010672,0.0,0 STARLINK-3908,1 52491U 22049AS  23087.90412899  .00010672  00000-0  68769-3 0  9995,2 52491  53.2135 202.9988 0002802  29.9649 330.1503 15.08833168 49833,6917.901,95.438,541.705,537.828,0.0
52491.0,STARLINK-3908,PAYLOAD,2023-03-29 12:00:24,15.08856912,0.0001068,53.2134,200.3228,100.4625,259.6488,0.0018348,0.00029047,0.0,0 STARLINK-3908,1 52491U 22049AS  23088.50028146  .00029047  00000-0  18348-2 0  9993,2 52491  53.2134 200.3228 0001068 100.4625 259.6488 15.08856912 50081,6917.829,95.436,540.433,538.955,0.0
52491.0,STARLINK-3908,PAYLOAD,2023-03-29 15:11:10,15.08867794,0.0001151,53.2133,199.728,95.5371,264.5752,0.0026245,0.00041761,0.0,0 STARLINK-3908,1 52491U 22049AS  23088.63276043  .00041761  00000-0  26245-2 0  9990,2 52491  53.2133 199.7280 0001151  95.5371 264.5752 15.08867794 49946,6917.795,95.436,540.457,538.864,0.0
52491.0,STARLINK-3908,PAYLOAD,2023-03-30 13:26:35,15.08851285,0.00015,53.2134,195.5647,74.9597,285.1561,0.0024547,0.00039007,0.0,0 STARLINK-3908,1 52491U 22049AS  23089.56012942  .00039007  00000-0  24547-2 0  9992,2 52491  53.2134 195.5647 0001500  74.9597 285.1561 15.08851285 50247,6917.846,95.437,540.749,538.673,0.0
52491.0,STARLINK-3908,PAYLOAD,2023-03-30 21:23:31,15.08840933,0.0001523,53.2145,194.0796,70.2507,289.8649,0.00053213,8.191e-05,0.0,0 STARLINK-3908,1 52491U 22049AS  23089.89133135  .00008191  00000-0  53213-3 0  9999,2 52491  53.2145 194.0796 0001523  70.2507 289.8649 15.08840933 50294,6917.878,95.437,540.796,538.689,0.0
52491.0,STARLINK-3908,PAYLOAD,2023-03-31 14:52:44,15.08882432,0.0001611,53.2146,190.8065,62.9751,297.1405,0.00284,0.00045254,0.0,0 STARLINK-3908,1 52491U 22049AS  23090.61996347  .00045254  00000-0  28400-2 0  9993,2 52491  53.2146 190.8065 0001611  62.9751 297.1405 15.08882432 50400,6917.751,95.435,540.73,538.501,0.0
52491.0,STARLINK-3908,PAYLOAD,2023-04-01 06:46:36,15.08831591,0.0001335,53.2142,187.8332,84.7431,275.3714,-2.4305e-05,-6.75e-06,0.0,0 STARLINK-3908,1 52491U 22049AS  23091.28236465 -.00000675  00000-0 -24305-4 0  9997,2 52491  53.2142 187.8332 0001335  84.7431 275.3714 15.08831591 50501,6917.906,95.438,540.695,538.848,0.0
52491.0,STARLINK-3908,PAYLOAD,2023-04-01 11:32:46,15.08830842,0.0001462,53.2149,186.9404,91.1034,269.0125,0.0012183,0.0001915,0.0,0 STARLINK-3908,1 52491U 22049AS  23091.48108892  .00019150  00000-0  12183-2 0  9996,2 52491  53.2149 186.9404 0001462  91.1034 269.0125 15.08830842 50379,6917.908,95.438,540.785,538.762,0.0
52491.0,STARLINK-3908,PAYLOAD,2023-04-01 21:05:05,15.08842771,0.00015,53.2145,185.1543,95.5512,264.5651,0.00207,0.00032812,0.0,0 STARLINK-3908,1 52491U 22049AS  23091.87853349  .00032812  00000-0  20700-2 0  9997,2 52491  53.2145 185.1543 0001500  95.5512 264.5651 15.08842771 50437,6917.872,95.437,540.775,538.699,0.0
52491.0,STARLINK-3908,PAYLOAD,2023-04-02 11:23:33,15.08868069,0.0001326,53.2151,182.4804,91.5114,268.603,0.0024036,0.00038202,0.0,0 STARLINK-3908,1 52491U 22049AS  23092.47469145  .00038202  00000-0  24036-2 0  9996,2 52491  53.2151 182.4804 0001326  91.5114 268.6030 15.08868069 50685,6917.795,95.436,540.577,538.742,0.0
52491.0,STARLINK-3908,PAYLOAD,2023-04-02 20:55:51,15.08839477,0.0001764,53.2152,180.6961,127.5648,232.5505,-0.001041,-0.00016817,0.0,0 STARLINK-3908,1 52491U 22049AS  23092.87212663 -.00016817  00000-0 -10410-2 0  9992,2 52491  53.2152 180.6961 0001764 127.5648 232.5505 15.08839477 50743,6917.882,95.438,540.967,538.527,0.0
52491.0,STARLINK-3908,PAYLOAD,2023-04-03 04:52:47,15.08860628,0.0001711,53.2159,179.2117,101.9683,258.1501,0.0011845,0.00018624,0.0,0 STARLINK-3908,1 52491U 22049AS  23093.20332826  .00018624  00000-0  11845-2 0  9993,2 52491  53.2159 179.2117 0001711 101.9683 258.1501 15.08860628 50791,6917.817,95.436,540.866,538.499,0.0
52491.0,STARLINK-3908,PAYLOAD,2023-04-03 11:14:20,15.08844301,0.0001362,53.215,178.0201,111.0351,249.0787,0.0013216,0.0002081,0.0,0 STARLINK-3908,1 52491U 22049AS  23093.46829064  .00020810  00000-0  13216-2 0  9990,2 52491  53.2150 178.0201 0001362 111.0351 249.0787 15.08844301 50839,6917.867,95.437,540.674,538.79,0.0
52491.0,STARLINK-3908,PAYLOAD,2023-04-03 20:46:39,15.08830929,0.0001841,53.2155,176.2386,57.5384,302.5786,0.00048776,7.481e-05,0.0,0 STARLINK-3908,1 52491U 22049AS  23093.86573526  .00007481  00000-0  48776-3 0  9992,2 52491  53.2155 176.2386 0001841  57.5384 302.5786 15.08830929 50891,6917.908,95.438,541.047,538.5,0.0
52491.0,STARLINK-3908,PAYLOAD,2023-04-04 11:05:07,15.08848969,0.0001241,53.2144,173.5597,96.6312,263.4821,0.0016225,0.00025635,0.0,0 STARLINK-3908,1 52491U 22049AS  23094.46189211  .00025635  00000-0  16225-2 0  9997,2 52491  53.2144 173.5597 0001241  96.6312 263.4821 15.08848969 50980,6917.853,95.437,540.576,538.859,0.0
52491.0,STARLINK-3908,PAYLOAD,2023-04-04 19:02:03,15.08833092,0.0001381,53.2143,172.0696,89.6899,270.4251,-0.00026196,-4.454e-05,0.0,0 STARLINK-3908,1 52491U 22049AS  23094.79309162 -.00004454  00000-0 -26196-3 0  9999,2 52491  53.2143 172.0696 0001381  89.6899 270.4251 15.08833092 51033,6917.902,95.438,540.722,538.811,0.0
52491.0,STARLINK-3908,PAYLOAD,2023-04-05 12:31:17,15.08850851,0.0001347,53.2151,168.8028,83.4291,276.6854,0.0016423,0.00025954,0.0,0 STARLINK-3908,1 52491U 22049AS  23095.52173311  .00025954  00000-0  16423-2 0  9993,2 52491  53.2151 168.8028 0001347  83.4291 276.6854 15.08850851 50986,6917.847,95.437,540.644,538.78,0.0
52491.0,STARLINK-3908,PAYLOAD,2023-04-05 20:28:13,15.08850002,0.0001361,53.2139,167.3163,77.0994,283.015,0.00091512,0.0001431,0.0,0 STARLINK-3908,1 52491U 22049AS  23095.85293287  .00014310  00000-0  91512-3 0  9991,2 52491  53.2139 167.3163 0001361  77.0994 283.0150 15.08850002 51037,6917.85,95.437,540.656,538.773,0.0
52491.0,STARLINK-3908,PAYLOAD,2023-04-05 22:03:36,15.08846771,0.0001512,53.2152,167.0204,76.0811,284.0349,0.00057261,8.839e-05,0.0,0 STARLINK-3908,1 52491U 22049AS  23095.91917354  .00008839  00000-0  57261-3 0  9998,2 52491  53.2152 167.0204 0001512  76.0811 284.0349 15.08846771 51208,6917.86,95.437,540.771,538.679,0.0
52491.0,STARLINK-3908,PAYLOAD,2023-04-06 09:11:18,15.08839882,0.0001417,53.2152,164.9377,80.682,279.4333,0.00022923,3.362e-05,0.0,0 STARLINK-3908,1 52491U 22049AS  23096.38285525  .00003362  00000-0  22923-3 0  9991,2 52491  53.2152 164.9377 0001417  80.6820 279.4333 15.08839882 51273,6917.881,95.438,540.726,538.765,0.0
52491.0,STARLINK-3908,PAYLOAD,2023-04-06 10:46:41,15.08840015,0.0001671,53.2152,164.6408,79.5732,280.5448,0.00020001,2.897e-05,0.0,0 STARLINK-3908,1 52491U 22049AS  23096.44909571  .00002897  00000-0  20001-3 0  9999,2 52491  53.2152 164.6408 0001671  79.5732 280.5448 15.08840015 51120,6917.88,95.438,540.901,538.589,0.0
52491.0,STARLINK-3908,PAYLOAD,2023-04-06 21:54:23,15.08831064,0.000135,53.2146,162.5563,107.2125,252.9015,-0.00015049,-2.682e-05,0.0,0 STARLINK-3908,1 52491U 22049AS  23096.91277487 -.00002682  00000-0 -15049-3 0  9995,2 52491  53.2146 162.5563 0001350 107.2125 252.9015 15.08831064 51195,6917.908,95.438,540.707,538.839,0.0
52491.0,STARLINK-3908,PAYLOAD,2023-04-07 10:37:28,15.08847467,0.0001242,53.2134,160.1785,91.2492,268.8642,0.00042629,6.504e-05,0.0,0 STARLINK-3908,1 52491U 22049AS  23097.44269288  .00006504  00000-0  42629-3 0  9993,2 52491  53.2134 160.1785 0001242  91.2492 268.8642 15.08847467 51434,6917.858,95.437,540.582,538.863,0.0
52491.0,STARLINK-3908,PAYLOAD,2023-04-07 20:09:47,15.08833205,0.0001394,53.2147,158.3952,70.7029,289.4114,7.2349e-05,8.63e-06,0.0,0 STARLINK-3908,1 52491U 22049AS  23097.84013646  .00000863  00000-0  72349-4 0  9997,2 52491  53.2147 158.3952 0001394  70.7029 289.4114 15.08833205 51493,6917.901,95.438,540.731,538.802,0.0
52491.0,STARLINK-3908,PAYLOAD,2023-04-08 10:28:15,15.08853578,0.0001237,53.2139,155.7172,87.8232,272.2902,0.0011823,0.00018585,0.0,0 STARLINK-3908,1 52491U 22049AS  23098.43629235  .00018585  00000-0  11823-2 0  9998,2 52491  53.2139 155.7172 0001237  87.8232 272.2902 15.08853578 51580,6917.839,95.437,540.56,538.848,0.0
52491.0,STARLINK-3908,PAYLOAD,2023-04-09 03:57:30,15.08836129,9.85e-05,53.2144,152.4465,92.7731,267.3373,0.00057708,8.907e-05,0.0,0 STARLINK-3908,1 52491U 22049AS  23099.16493563  .00008907  00000-0  57708-3 0  9992,2 52491  53.2144 152.4465 0000985  92.7731 267.3373 15.08836129 51695,6917.892,95.438,540.439,539.076,0.0
